IRIDIUM 136             
1 42962U 17061H   24142.54418641  .00000497  00000+0  17042-3 0  9990
2 42962  86.3968 341.4634 0002215  78.4383 281.7061 14.34215702346381
